CCSDS_OEM_VERS = 1.0
CREATION_DATE  = 2017-05-11T11:57:21
ORIGINATOR     = GMAT USER

META_START
OBJECT_NAME          = MOPSSat_alt_35785_km_RAAN_270_075
OBJECT_ID            = SatId
CENTER_NAME          = Earth
REF_FRAME            = EME2000
TIME_SYSTEM          = UTC
START_TIME           = 2017-01-01T00:00:00.000
USEABLE_START_TIME   = 2017-01-01T00:00:00.000
USEABLE_STOP_TIME    = 2017-01-02T00:00:00.000
STOP_TIME            = 2017-01-02T00:00:00.000
INTERPOLATION        = Lagrange
INTERPOLATION_DEGREE = 7 
META_STOP


                                                                                   

2017-01-01T21:23:20.000  -2.612537793288177e+04  -3.304894763517457e+04  -4.535312772998280e+02   2.414505496373025e+00  -1.907012132050854e+00   4.211424254462966e-02
2017-01-01T21:23:30.000  -2.610122591664859e+04  -3.306800894654643e+04  -4.531100140639434e+02   2.415897489942461e+00  -1.905249936109055e+00   4.213840008687878e-02
2017-01-01T21:23:40.000  -2.607705998737305e+04  -3.308705263050372e+04  -4.526885093730156e+02   2.417288197473601e+00  -1.903486722434801e+00   4.216253516897463e-02
2017-01-01T21:23:50.000  -2.605288015766974e+04  -3.310607867707023e+04  -4.522667634473580e+02   2.418677618234700e+00  -1.901722491949244e+00   4.218664777821741e-02
2017-01-01T21:24:00.000  -2.602868644021963e+04  -3.312508707623254e+04  -4.518447765084429e+02   2.420065751491286e+00  -1.899957245578392e+00   4.221073790186008e-02
2017-01-01T21:24:10.000  -2.600447884762691e+04  -3.314407781805331e+04  -4.514225487764005e+02   2.421452596514450e+00  -1.898190984242651e+00   4.223480552725217e-02
2017-01-01T21:24:20.000  -2.598025739280385e+04  -3.316305089236610e+04  -4.510000804767359e+02   2.422838152558547e+00  -1.896423708884913e+00   4.225885064145287e-02
2017-01-01T21:24:30.000  -2.595602208865339e+04  -3.318200628902746e+04  -4.505773718347897e+02   2.424222418879619e+00  -1.894655420447397e+00   4.228287323155075e-02
2017-01-01T21:24:40.000  -2.593177294813990e+04  -3.320094399786066e+04  -4.501544230769739e+02   2.425605394731271e+00  -1.892886119876808e+00   4.230687328459223e-02
2017-01-01T21:24:50.000  -2.590750998427088e+04  -3.321986400867216e+04  -4.497312344304517e+02   2.426987079365887e+00  -1.891115808123006e+00   4.233085078760246e-02
2017-01-01T21:25:00.000  -2.588323321007192e+04  -3.323876631126934e+04  -4.493078061227015e+02   2.428367472035912e+00  -1.889344486137177e+00   4.235480572760793e-02
2017-01-01T21:25:10.000  -2.585894263857808e+04  -3.325765089546755e+04  -4.488841383813659e+02   2.429746571994380e+00  -1.887572154871201e+00   4.237873809164531e-02
2017-01-01T21:25:20.000  -2.583463828274743e+04  -3.327651775115816e+04  -4.484602314327441e+02   2.431124378499872e+00  -1.885798815271351e+00   4.240264786684768e-02
2017-01-01T21:25:30.000  -2.581032015551843e+04  -3.329536686826285e+04  -4.480360855027927e+02   2.432500890813181e+00  -1.884024468282472e+00   4.242653504038665e-02
2017-01-01T21:25:40.000  -2.578598826981001e+04  -3.331419823673374e+04  -4.476117008171274e+02   2.433876108197333e+00  -1.882249114847991e+00   4.245039959947253e-02
2017-01-01T21:25:50.000  -2.576164263846304e+04  -3.333301184659765e+04  -4.471870776000005e+02   2.435250029920800e+00  -1.880472755905644e+00   4.247424153141033e-02
2017-01-01T21:26:00.000  -2.573728327432775e+04  -3.335180768788926e+04  -4.467622160758285e+02   2.436622655252631e+00  -1.878695392393860e+00   4.249806082351515e-02
2017-01-01T21:26:10.000  -2.571291019027256e+04  -3.337058575064444e+04  -4.463371164693436e+02   2.437993983461966e+00  -1.876917025252398e+00   4.252185746310369e-02
2017-01-01T21:26:20.000  -2.568852339920756e+04  -3.338934602488048e+04  -4.459117790060040e+02   2.439364013816584e+00  -1.875137655424063e+00   4.254563143746917e-02
2017-01-01T21:26:30.000  -2.566412291410496e+04  -3.340808850058243e+04  -4.454862039123519e+02   2.440732745581915e+00  -1.873357283856202e+00   4.256938273386408e-02
2017-01-01T21:26:40.000  -2.563970874792695e+04  -3.342681316775767e+04  -4.450603914147529e+02   2.442100178025014e+00  -1.871575911495432e+00   4.259311133956932e-02
2017-01-01T21:26:50.000  -2.561528091394872e+04  -3.344552001619096e+04  -4.446343417450316e+02   2.443466310396681e+00  -1.869793539311219e+00   4.261681724158372e-02
2017-01-01T21:27:00.000  -2.559083942536729e+04  -3.346420903574168e+04  -4.442080551336477e+02   2.444831141953171e+00  -1.868010168267328e+00   4.264050042700083e-02
2017-01-01T21:27:10.000  -2.556638429544682e+04  -3.348288021623309e+04  -4.437815318122322e+02   2.446194671948093e+00  -1.866225799332428e+00   4.266416088286851e-02
2017-01-01T21:27:20.000  -2.554191553695617e+04  -3.350153354788208e+04  -4.433547720037771e+02   2.447556899663811e+00  -1.864440433439061e+00   4.268779859673347e-02
2017-01-01T21:27:30.000  -2.551743316272983e+04  -3.352016902087031e+04  -4.429277759324177e+02   2.448917824380112e+00  -1.862654071524556e+00   4.271141355609801e-02
2017-01-01T21:27:40.000  -2.549293718554102e+04  -3.353878662544183e+04  -4.425005438212201e+02   2.450277445381340e+00  -1.860866714521783e+00   4.273500574854346e-02
2017-01-01T21:27:50.000  -2.546842761841707e+04  -3.355738635165938e+04  -4.420730758976818e+02   2.451635761938602e+00  -1.859078363382154e+00   4.275857516142152e-02
2017-01-01T21:28:00.000  -2.544390447440578e+04  -3.357596818958600e+04  -4.416453723896570e+02   2.452992773323019e+00  -1.857289019058585e+00   4.278212178208439e-02
2017-01-01T21:28:10.000  -2.541936776657470e+04  -3.359453212928405e+04  -4.412174335253437e+02   2.454348478805673e+00  -1.855498682505436e+00   4.280564559788349e-02
2017-01-01T21:28:20.000  -2.539481750824883e+04  -3.361307816063900e+04  -4.407892595374284e+02   2.455702877644728e+00  -1.853707354695861e+00   4.282914659594624e-02
2017-01-01T21:28:30.000  -2.537025371269112e+04  -3.363160627359780e+04  -4.403608506575162e+02   2.457055969102824e+00  -1.851915036598492e+00   4.285262476347798e-02
2017-01-01T21:28:40.000  -2.534567639322812e+04  -3.365011645807452e+04  -4.399322071183199e+02   2.458407752440223e+00  -1.850121729186605e+00   4.287608008764256e-02
2017-01-01T21:28:50.000  -2.532108556269540e+04  -3.366860870436839e+04  -4.395033291439886e+02   2.459758226945297e+00  -1.848327433397659e+00   4.289951255609195e-02
2017-01-01T21:29:00.000  -2.529648123399199e+04  -3.368708300274568e+04  -4.390742169597776e+02   2.461107391904016e+00  -1.846532150173750e+00   4.292292215643646e-02
2017-01-01T21:29:10.000  -2.527186341995523e+04  -3.370553934353456e+04  -4.386448707898660e+02   2.462455246606879e+00  -1.844735880452476e+00   4.294630887636497e-02
2017-01-01T21:29:20.000  -2.524723213367773e+04  -3.372397771688365e+04  -4.382152908628847e+02   2.463801790331261e+00  -1.842938625190074e+00   4.296967270333886e-02
2017-01-01T21:29:30.000  -2.522258738827266e+04  -3.374239811294193e+04  -4.377854774078210e+02   2.465147022354576e+00  -1.841140385344277e+00   4.299301362482018e-02
2017-01-01T21:29:40.000  -2.519792919687286e+04  -3.376080052185789e+04  -4.373554306540063e+02   2.466490941954193e+00  -1.839341161874267e+00   4.301633162827030e-02
2017-01-01T21:29:50.000  -2.517325757286983e+04  -3.377918493360485e+04  -4.369251508352812e+02   2.467833548394693e+00  -1.837540955758101e+00   4.303962670092890e-02
2017-01-01T21:30:00.000  -2.514857252959258e+04  -3.379755133821706e+04  -4.364946381843968e+02   2.469174840945111e+00  -1.835739767969286e+00   4.306289883011291e-02
2017-01-01T21:30:10.000  -2.512387408043395e+04  -3.381589972569651e+04  -4.360638929352158e+02   2.470514818872119e+00  -1.833937599485992e+00   4.308614800309840e-02
2017-01-01T21:30:20.000  -2.509916223829328e+04  -3.383423008642694e+04  -4.356329153129945e+02   2.471853481470275e+00  -1.832134451250382e+00   4.310937420764541e-02
2017-01-01T21:30:30.000  -2.507443701613358e+04  -3.385254241075966e+04  -4.352017055440981e+02   2.473190828031765e+00  -1.830330324209274e+00   4.313257743147285e-02
2017-01-01T21:30:40.000  -2.504969842685575e+04  -3.387083668910743e+04  -4.347702638538086e+02   2.474526857853266e+00  -1.828525219304961e+00   4.315575766237767e-02
2017-01-01T21:30:50.000  -2.502494648361720e+04  -3.388911291170510e+04  -4.343385904718805e+02   2.475861570218465e+00  -1.826719137498456e+00   4.317891488793150e-02
2017-01-01T21:31:00.000  -2.500018119959581e+04  -3.390737106878814e+04  -4.339066856284250e+02   2.477194964411089e+00  -1.824912079752273e+00   4.320204909570677e-02
2017-01-01T21:31:10.000  -2.497540258798920e+04  -3.392561115059151e+04  -4.334745495538966e+02   2.478527039714832e+00  -1.823104047030370e+00   4.322516027327548e-02
2017-01-01T21:31:20.000  -2.495061066225471e+04  -3.394383314717682e+04  -4.330421824832790e+02   2.479857795400729e+00  -1.821295040315668e+00   4.324824840798999e-02
2017-01-01T21:31:30.000  -2.492580543578691e+04  -3.396203704866614e+04  -4.326095846504604e+02   2.481187230744233e+00  -1.819485060586506e+00   4.327131348727949e-02
2017-01-01T21:31:40.000  -2.490098692204674e+04  -3.398022284514796e+04  -4.321767562904853e+02   2.482515345018338e+00  -1.817674108826079e+00   4.329435549853060e-02
2017-01-01T21:31:50.000  -2.487615513399218e+04  -3.399839052709439e+04  -4.317436976296266e+02   2.483842137524063e+00  -1.815862185980882e+00   4.331737442961611e-02
2017-01-01T21:32:00.000  -2.485131008464888e+04  -3.401654008494259e+04  -4.313104088953374e+02   2.485167607559871e+00  -1.814049293002360e+00   4.334037026836481e-02
2017-01-01T21:32:10.000  -2.482645178696311e+04  -3.403467150920315e+04  -4.308768903136837e+02   2.486491754429589e+00  -1.812235430836165e+00   4.336334300269844e-02
2017-01-01T21:32:20.000  -2.480158025419700e+04  -3.405278479016844e+04  -4.304431421162419e+02   2.487814577421109e+00  -1.810420600451008e+00   4.338629262026236e-02
